OBJECT_NAME,OBJECT_ID,EPOCH,MEAN_MOTION,ECCENTRICITY,INCLINATION,RA_OF_ASC_NODE,ARG_OF_PERICENTER,MEAN_ANOMALY,EPHEMERIS_TYPE,CLASSIFICATION_TYPE,NORAD_CAT_ID,ELEMENT_SET_NO,REV_AT_EPOCH,BSTAR,MEAN_MOTION_DOT,MEAN_MOTION_DDOT
SUOMI NPP,2011-061A,2026-05-19T22:25:49.123776,14.19510805,.00027244,98.7945,81.0057,62.0978,298.0474,0,U,37849,999,75443,.48733023E-4,.58E-6,0
YAOGAN-12,2011-066B,2026-05-19T22:41:43.097280,15.26200671,.0008875,97.1159,179.8459,336.7529,23.3308,0,U,37875,999,80773,.167425E-3,.4266E-4,0
BEIDOU-2 M4,2012-018B,2026-05-17T12:20:37.392288,1.86229518,.00109291,55.6853,305.1252,280.3706,79.4822,0,U,38251,999,9537,0,-.55E-6,0
ARIRANG-3 (KOMPSAT-3),2012-025B,2026-05-19T23:25:17.239008,14.62178253,.00049288,98.1156,97.9265,188.6183,171.4935,0,U,38338,999,74722,.62253682E-4,.267E-5,0
METOP-B,2012-049A,2026-05-19T23:06:10.454400,14.21424073,.00034403,98.6522,192.0222,78.9677,281.1887,0,U,38771,999,70925,.46993265E-4,.59E-6,0
SJ-9A,2012-056A,2026-05-19T22:33:41.576256,14.85409003,.00254083,97.6694,112.9183,354.0996,5.9916,0,U,38860,999,69539,.12121018E-3,.997E-5,0
COSMOS 2484 (RODNIK-S 6),2013-001C,2026-05-19T23:21:33.234048,12.42937699,.00275665,82.5033,239.4310,96.1032,264.3189,0,U,39059,999,60505,-.56195606E-3,-.68E-6,0
SARAL,2013-009A,2026-05-19T23:15:13.576896,14.32848328,.00023164,98.5559,326.8937,39.3362,320.7990,0,U,39086,999,69156,.30853973E-4,.4E-6,0
STRAND-1,2013-009E,2026-05-19T17:16:28.806240,14.37144504,.00078006,98.3916,320.6562,322.9996,37.0652,0,U,39090,999,69297,.63848243E-4,.147E-5,0
BRITE-AUSTRIA,2013-009F,2026-05-19T22:18:18.285120,14.36529628,.00095013,98.3988,320.0657,330.8655,29.2001,0,U,39091,999,69299,.49288003E-4,.102E-5,0
GAOFEN-1,2013-018A,2026-05-19T22:32:55.297824,14.76539362,.00170643,97.9101,212.5792,2.3132,357.8154,0,U,39150,999,70407,-.10090422E-4,-.122E-5,0
NEE-01 PEGASO,2013-018B,2026-05-19T22:14:57.488928,14.93502115,.00113722,98.1188,283.1528,255.2186,104.7773,0,U,39151,999,70648,.1513037E-3,.1532E-4,0
PROBA-V,2013-021A,2026-05-19T22:26:15.298656,14.23590396,.00035713,98.3573,119.9390,199.3574,160.7471,0,U,39159,999,67709,.34686771E-4,.38E-6,0
ARIRANG-5 (KOMPSAT-5),2013-042A,2026-05-19T23:11:48.565248,15.04501670,.00022938,97.6206,327.0639,197.7876,162.3270,0,U,39227,999,69961,.62786281E-4,.818E-5,0
GONETS-M 5,2013-048A,2026-05-19T22:35:04.708608,12.42891046,.00156882,82.4844,0.9951,276.2116,83.7176,0,U,39249,999,57537,-.22975484E-4,.7E-7,0
GONETS-M 7,2013-048C,2026-05-19T23:38:23.686368,12.42913915,.00164926,82.4913,3.8749,277.3919,82.5286,0,U,39251,999,57533,.21728698E-3,.4E-6,0
FENGYUN 3C,2013-052A,2026-05-19T21:58:34.007232,14.15747709,.00158271,98.4966,115.0918,103.5445,256.7494,0,U,39260,999,65456,.4112799E-4,.4E-6,0
CASSIOPE,2013-055A,2026-05-19T22:16:56.181792,15.22908073,.03003502,80.9143,100.9696,157.1186,204.3766,0,U,39265,999,66336,.31132613E-3,.27526E-3,-.651007E-6
APRIZESAT 7,2013-066A,2026-05-19T15:24:36.945792,14.91492060,.00346041,97.7693,93.2768,307.6697,52.1385,0,U,39416,999,67697,.66547299E-4,.615E-5,0
ZACUBE-1 (TSHEPISOSAT),2013-066B,2026-05-19T21:02:32.912448,15.00948884,.00409943,97.8123,102.0604,347.8818,12.1416,0,U,39417,999,67648,.23956724E-3,.3044E-4,0
APRIZESAT 8,2013-066K,2026-05-19T16:32:45.319488,14.87583511,.00465564,97.8207,87.5593,21.5822,338.7343,0,U,39425,999,67543,.78319661E-4,.668E-5,0
