SUOMI NPP               
1 37849U 11061A   26139.93459634  .00000058  00000+0  48733-4 0  9995
2 37849  98.7945  81.0057 0002724  62.0978 298.0474 14.19510805754434
YAOGAN-12               
1 37875U 11066B   26139.94563770  .00004266  00000+0  16742-3 0  9996
2 37875  97.1159 179.8459 0008875 336.7529  23.3308 15.26200671807734
BEIDOU-2 M4             
1 38251U 12018B   26137.51432167 -.00000055  00000+0  00000+0 0  9998
2 38251  55.6853 305.1252 0010929 280.3706  79.4822  1.86229518 95376
ARIRANG-3 (KOMPSAT-3)   
1 38338U 12025B   26139.97589397  .00000267  00000+0  62254-4 0  9990
2 38338  98.1156  97.9265 0004928 188.6183 171.4935 14.62178253747224
METOP-B                 
1 38771U 12049A   26139.96262100  .00000059  00000+0  46993-4 0  9997
2 38771  98.6522 192.0222 0003440  78.9677 281.1887 14.21424073709259
SJ-9A                   
1 38860U 12056A   26139.94006454  .00000997  00000+0  12121-3 0  9996
2 38860  97.6694 112.9183 0025408 354.0996   5.9916 14.85409003695394
COSMOS 2484 (RODNIK-S 6)
1 39059U 13001C   26139.97330132 -.00000068  00000+0 -56196-3 0  9995
2 39059  82.5033 239.4310 0027566  96.1032 264.3189 12.42937699605059
SARAL                   
1 39086U 13009A   26139.96890714  .00000040  00000+0  30854-4 0  9991
2 39086  98.5559 326.8937 0002316  39.3362 320.7990 14.32848328691565
STRAND-1                
1 39090U 13009E   26139.71977785  .00000147  00000+0  63848-4 0  9990
2 39090  98.3916 320.6562 0007800 322.9996  37.0652 14.37144504692977
BRITE-AUSTRIA           
1 39091U 13009F   26139.92937830  .00000102  00000+0  49288-4 0  9994
2 39091  98.3988 320.0657 0009501 330.8655  29.2001 14.36529628692992
GAOFEN-1                
1 39150U 13018A   26139.93952891 -.00000122  00000+0 -10090-4 0  9998
2 39150  97.9101 212.5792 0017064   2.3132 357.8154 14.76539362704071
NEE-01 PEGASO           
1 39151U 13018B   26139.92705427  .00001532  00000+0  15130-3 0  9992
2 39151  98.1188 283.1528 0011372 255.2186 104.7773 14.93502115706483
PROBA-V                 
1 39159U 13021A   26139.93489929  .00000038  00000+0  34687-4 0  9990
2 39159  98.3573 119.9390 0003571 199.3574 160.7471 14.23590396677097
ARIRANG-5 (KOMPSAT-5)   
1 39227U 13042A   26139.96653432  .00000818  00000+0  62786-4 0  9991
2 39227  97.6206 327.0639 0002293 197.7876 162.3270 15.04501670699617
GONETS-M 5              
1 39249U 13048A   26139.94102672  .00000007  00000+0 -22975-4 0  9991
2 39249  82.4844   0.9951 0015688 276.2116  83.7176 12.42891046575372
GONETS-M 7              
1 39251U 13048C   26139.98499637  .00000040  00000+0  21729-3 0  9999
2 39251  82.4913   3.8749 0016492 277.3919  82.5286 12.42913915575331
FENGYUN 3C              
1 39260U 13052A   26139.91567138  .00000040  00000+0  41128-4 0  9995
2 39260  98.4966 115.0918 0015827 103.5445 256.7494 14.15747709654562
CASSIOPE                
1 39265U 13055A   26139.92842803  .00027526 -65101-6  31133-3 0  9992
2 39265  80.9143 100.9696 0300350 157.1186 204.3766 15.22908073663362
APRIZESAT 7             
1 39416U 13066A   26139.64209428  .00000615  00000+0  66547-4 0  9998
2 39416  97.7693  93.2768 0034604 307.6697  52.1385 14.91492060676971
ZACUBE-1 (TSHEPISOSAT)  
1 39417U 13066B   26139.87676982  .00003044  00000+0  23957-3 0  9993
2 39417  97.8123 102.0604 0040994 347.8818  12.1416 15.00948884676487
APRIZESAT 8             
1 39425U 13066K   26139.68941342  .00000668  00000+0  78320-4 0  9990
2 39425  97.8207  87.5593 0046556  21.5822 338.7343 14.87583511675430
